{
  "type": "FeatureCollection",
  "features": [
    {
      "type": "Feature",
      "properties": {
        "norad_id": 35434,
        "name": "COSMOS 2251 DEB",
        "group": "cosmos-2251-debris",
        "lat": -17.070784539214095,
        "lon": -168.56249759257506,
        "alt_km": 796.3224602303153,
        "timestamp": "2025-12-22T05:49:03.897294+00:00",
        "meta_object_name": "COSMOS 2251 DEB",
        "meta_object_id": "1993-036AKC",
        "meta_epoch": "2025-12-13T21:29:58.278624",
        "meta_mean_motion": 14.25692247,
        "meta_eccentricity": 0.00874643,
        "meta_inclination": 74.0404,
        "meta_ra_of_asc_node": 211.5388,
        "meta_arg_of_pericenter": 282.0357,
        "meta_mean_anomaly": 77.0999,
        "meta_ephemeris_type": 0,
        "meta_classification_type": "U",
        "meta_norad_cat_id": 35434,
        "meta_element_set_no": 999,
        "meta_rev_at_epoch": 86134,
        "meta_bstar": 0.00076141319,
        "meta_mean_motion_dot": 1.854e-05,
        "meta_mean_motion_ddot": 0,
        "tle_line1": "1 35434U 93036AKC 25347.89581341  .00001854  00000+0  76141-3 0  9999",
        "tle_line2": "2 35434  74.0404 211.5388 0087464 282.0357  77.0999 14.25692247861349"
      },
      "geometry": {
        "type": "Point",
        "coordinates": [
          -168.56249759257506,
          -17.070784539214095
        ]
      }
    },
    {
      "type": "Feature",
      "properties": {
        "norad_id": 35435,
        "name": "COSMOS 2251 DEB",
        "group": "cosmos-2251-debris",
        "lat": -2.5118557463937043,
        "lon": -93.91713238996542,
        "alt_km": 631.3845970844786,
        "timestamp": "2025-12-22T05:49:03.897304+00:00",
        "meta_object_name": "COSMOS 2251 DEB",
        "meta_object_id": "1993-036AKD",
        "meta_epoch": "2025-12-21T14:40:33.079008",
        "meta_mean_motion": 14.78710754,
        "meta_eccentricity": 0.0007054,
        "meta_inclination": 74.0111,
        "meta_ra_of_asc_node": 86.6037,
        "meta_arg_of_pericenter": 183.8083,
        "meta_mean_anomaly": 241.499,
        "meta_ephemeris_type": 0,
        "meta_classification_type": "U",
        "meta_norad_cat_id": 35435,
        "meta_element_set_no": 999,
        "meta_rev_at_epoch": 87670,
        "meta_bstar": 0.0016617,
        "meta_mean_motion_dot": 0.00012188,
        "meta_mean_motion_ddot": 0,
        "tle_line1": "1 35435U 93036AKD 25355.61149397  .00012188  00000+0  16617-2 0  9993",
        "tle_line2": "2 35435  74.0111  86.6037 0007054 183.8083 241.4990 14.78710754876704"
      },
      "geometry": {
        "type": "Point",
        "coordinates": [
          -93.91713238996542,
          -2.5118557463937043
        ]
      }
    },
    {
      "type": "Feature",
      "properties": {
        "norad_id": 35439,
        "name": "COSMOS 2251 DEB",
        "group": "cosmos-2251-debris",
        "lat": 57.698972602721234,
        "lon": 145.4118814548534,
        "alt_km": 1037.8116807191082,
        "timestamp": "2025-12-22T05:49:03.897315+00:00",
        "meta_object_name": "COSMOS 2251 DEB",
        "meta_object_id": "1993-036AKH",
        "meta_epoch": "2025-12-20T15:40:28.809408",
        "meta_mean_motion": 13.92842634,
        "meta_eccentricity": 0.0242584,
        "meta_inclination": 74.0193,
        "meta_ra_of_asc_node": 121.1801,
        "meta_arg_of_pericenter": 288.7541,
        "meta_mean_anomaly": 84.8538,
        "meta_ephemeris_type": 0,
        "meta_classification_type": "U",
        "meta_norad_cat_id": 35439,
        "meta_element_set_no": 999,
        "meta_rev_at_epoch": 84071,
        "meta_bstar": 0.0011295,
        "meta_mean_motion_dot": 1.838e-05,
        "meta_mean_motion_ddot": 0,
        "tle_line1": "1 35439U 93036AKH 25354.65311122  .00001838  00000+0  11295-2 0  9994",
        "tle_line2": "2 35439  74.0193 121.1801 0242584 288.7541  84.8538 13.92842634840712"
      },
      "geometry": {
        "type": "Point",
        "coordinates": [
          145.4118814548534,
          57.698972602721234
        ]
      }
    },
    {
      "type": "Feature",
      "properties": {
        "norad_id": 35440,
        "name": "COSMOS 2251 DEB",
        "group": "cosmos-2251-debris",
        "lat": -26.677541803114753,
        "lon": 17.495730641725263,
        "alt_km": 694.3343029180414,
        "timestamp": "2025-12-22T05:49:03.897325+00:00",
        "meta_object_name": "COSMOS 2251 DEB",
        "meta_object_id": "1993-036AKJ",
        "meta_epoch": "2025-12-17T20:15:19.490976",
        "meta_mean_motion": 14.68838958,
        "meta_eccentricity": 0.00695054,
        "meta_inclination": 74.0134,
        "meta_ra_of_asc_node": 197.7346,
        "meta_arg_of_pericenter": 337.3687,
        "meta_mean_anomaly": 22.4422,
        "meta_ephemeris_type": 0,
        "meta_classification_type": "U",
        "meta_norad_cat_id": 35440,
        "meta_element_set_no": 999,
        "meta_rev_at_epoch": 68840,
        "meta_bstar": 0.00030670457,
        "meta_mean_motion_dot": 1.824e-05,
        "meta_mean_motion_ddot": 0,
        "tle_line1": "1 35440U 93036AKJ 25351.84397559  .00001824  00000+0  30670-3 0  9996",
        "tle_line2": "2 35440  74.0134 197.7346 0069505 337.3687  22.4422 14.68838958688408"
      },
      "geometry": {
        "type": "Point",
        "coordinates": [
          17.495730641725263,
          -26.677541803114753
        ]
      }
    },
    {
      "type": "Feature",
      "properties": {
        "norad_id": 35441,
        "name": "COSMOS 2251 DEB",
        "group": "cosmos-2251-debris",
        "lat": -46.42835027632487,
        "lon": -97.39305029018804,
        "alt_km": 709.7578597129068,
        "timestamp": "2025-12-22T05:49:03.897335+00:00",
        "meta_object_name": "COSMOS 2251 DEB",
        "meta_object_id": "1993-036AKK",
        "meta_epoch": "2025-12-21T02:08:13.738560",
        "meta_mean_motion": 14.62705296,
        "meta_eccentricity": 0.00361872,
        "meta_inclination": 74.1353,
        "meta_ra_of_asc_node": 282.196,
        "meta_arg_of_pericenter": 175.8941,
        "meta_mean_anomaly": 184.2531,
        "meta_ephemeris_type": 0,
        "meta_classification_type": "U",
        "meta_norad_cat_id": 35441,
        "meta_element_set_no": 999,
        "meta_rev_at_epoch": 87552,
        "meta_bstar": 0.00090653358,
        "meta_mean_motion_dot": 4.633e-05,
        "meta_mean_motion_ddot": 0,
        "tle_line1": "1 35441U 93036AKK 25355.08904790  .00004633  00000+0  90653-3 0  9996",
        "tle_line2": "2 35441  74.1353 282.1960 0036187 175.8941 184.2531 14.62705296875523"
      },
      "geometry": {
        "type": "Point",
        "coordinates": [
          -97.39305029018804,
          -46.42835027632487
        ]
      }
    },
    {
      "type": "Feature",
      "properties": {
        "norad_id": 35442,
        "name": "COSMOS 2251 DEB",
        "group": "cosmos-2251-debris",
        "lat": -41.352949232498624,
        "lon": -85.12437083589911,
        "alt_km": 623.3080347728401,
        "timestamp": "2025-12-22T05:49:03.897345+00:00",
        "meta_object_name": "COSMOS 2251 DEB",
        "meta_object_id": "1993-036AKL",
        "meta_epoch": "2025-12-21T15:52:41.510784",
        "meta_mean_motion": 14.84721405,
        "meta_eccentricity": 0.0003826,
        "meta_inclination": 74.0271,
        "meta_ra_of_asc_node": 81.4264,
        "meta_arg_of_pericenter": 51.6549,
        "meta_mean_anomaly": 308.4973,
        "meta_ephemeris_type": 0,
        "meta_classification_type": "U",
        "meta_norad_cat_id": 35442,
        "meta_element_set_no": 999,
        "meta_rev_at_epoch": 87485,
        "meta_bstar": 0.0016051,
        "meta_mean_motion_dot": 0.00013595,
        "meta_mean_motion_ddot": 0,
        "tle_line1": "1 35442U 93036AKL 25355.66159156  .00013595  00000+0  16051-2 0  9995",
        "tle_line2": "2 35442  74.0271  81.4264 0003826  51.6549 308.4973 14.84721405874857"
      },
      "geometry": {
        "type": "Point",
        "coordinates": [
          -85.12437083589911,
          -41.352949232498624
        ]
      }
    },
    {
      "type": "Feature",
      "properties": {
        "norad_id": 35443,
        "name": "COSMOS 2251 DEB",
        "group": "cosmos-2251-debris",
        "lat": -36.20071990092347,
        "lon": -59.8230092545758,
        "alt_km": 612.8147617157001,
        "timestamp": "2025-12-22T05:49:03.897355+00:00",
        "meta_object_name": "COSMOS 2251 DEB",
        "meta_object_id": "1993-036AKM",
        "meta_epoch": "2025-12-21T07:32:20.929632",
        "meta_mean_motion": 14.97363427,
        "meta_eccentricity": 0.00728025,
        "meta_inclination": 73.99,
        "meta_ra_of_asc_node": 314.1919,
        "meta_arg_of_pericenter": 93.8694,
        "meta_mean_anomaly": 267.0818,
        "meta_ephemeris_type": 0,
        "meta_classification_type": "U",
        "meta_norad_cat_id": 35443,
        "meta_element_set_no": 999,
        "meta_rev_at_epoch": 87006,
        "meta_bstar": 0.0032774365,
        "meta_mean_motion_dot": 0.00040387,
        "meta_mean_motion_ddot": 0,
        "tle_line1": "1 35443U 93036AKM 25355.31413113  .00040387  00000+0  32774-2 0  9993",
        "tle_line2": "2 35443  73.9900 314.1919 0072802  93.8694 267.0818 14.97363427870064"
      },
      "geometry": {
        "type": "Point",
        "coordinates": [
          -59.8230092545758,
          -36.20071990092347
        ]
      }
    }
  ]
}